[
    {
        "Altitude(m)": 617719.7253781225,
        "Argument of Periapsis(deg)": 0.0,
        "Eccentricity": 0.0,
        "Inclination(deg)": 60.0,
        "Latitude(deg)": -41.10251675220982,
        "Longitude(deg)": 60.0946864930098,
        "Mean Anomaly(deg)": -130.9091,
        "RAAN(deg)": 310.0,
        "Satellite Name": "Test1 1378",
        "Satellite Number": 1378,
        "Semi-Major Axis(m)": 6980739.136638005,
        "Time(s)": 0
    },
    {
        "Altitude(m)": 617911.2610403677,
        "Argument of Periapsis(deg)": 0.00010418945913296404,
        "Eccentricity": 0.0,
        "Inclination(deg)": 60.0,
        "Latitude(deg)": -41.56570834379314,
        "Longitude(deg)": 60.59909273231468,
        "Mean Anomaly(deg)": -130.28899385453815,
        "RAAN(deg)": 309.99957995086027,
        "Satellite Name": "Test1 1378",
        "Satellite Number": 1378,
        "Semi-Major Axis(m)": 6980739.136638005,
        "Time(s)": 10
    },
    {
        "Altitude(m)": 618101.6714892724,
        "Argument of Periapsis(deg)": 0.0002083789182659281,
        "Eccentricity": 0.0,
        "Inclination(deg)": 60.0,
        "Latitude(deg)": -42.02622143474922,
        "Longitude(deg)": 61.11130631134249,
        "Mean Anomaly(deg)": -129.6688877090763,
        "RAAN(deg)": 309.99915990172053,
        "Satellite Name": "Test1 1378",
        "Satellite Number": 1378,
        "Semi-Major Axis(m)": 6980739.136638005,
        "Time(s)": 20
    },
    {
        "Altitude(m)": 618290.8836976032,
        "Argument of Periapsis(deg)": 0.00031256837739889213,
        "Eccentricity": 0.0,
        "Inclination(deg)": 60.0,
        "Latitude(deg)": -42.483975778645465,
        "Longitude(deg)": 61.63152191365629,
        "Mean Anomaly(deg)": -129.0487815636145,
        "RAAN(deg)": 309.9987398525808,
        "Satellite Name": "Test1 1378",
        "Satellite Number": 1378,
        "Semi-Major Axis(m)": 6980739.136638005,
        "Time(s)": 30
    },
    {
        "Altitude(m)": 618478.8250153414,
        "Argument of Periapsis(deg)": 0.0004167578365318562,
        "Eccentricity": 0.0,
        "Inclination(deg)": 60.0,
        "Latitude(deg)": -42.9388886040162,
        "Longitude(deg)": 62.159938016425464,
        "Mean Anomaly(deg)": -128.42867541815264,
        "RAAN(deg)": 309.99831980344106,
        "Satellite Name": "Test1 1378",
        "Satellite Number": 1378,
        "Semi-Major Axis(m)": 6980739.136638005,
        "Time(s)": 40
    },
    {
        "Altitude(m)": 618665.4232013255,
        "Argument of Periapsis(deg)": 0.0005209472956648203,
        "Eccentricity": 0.0,
        "Inclination(deg)": 60.0,
        "Latitude(deg)": -43.39087453625196,
        "Longitude(deg)": 62.696755792509904,
        "Mean Anomaly(deg)": -127.80856927269089,
        "RAAN(deg)": 309.99789975430133,
        "Satellite Name": "Test1 1378",
        "Satellite Number": 1378,
        "Semi-Major Axis(m)": 6980739.136638005,
        "Time(s)": 50
    },
    {
        "Altitude(m)": 618850.6064547088,
        "Argument of Periapsis(deg)": 0.0006251367547977843,
        "Eccentricity": 0.0,
        "Inclination(deg)": 60.0,
        "Latitude(deg)": -43.83984551884661,
        "Longitude(deg)": 63.24217950566513,
        "Mean Anomaly(deg)": -127.18846312722904,
        "RAAN(deg)": 309.99747970516154,
        "Satellite Name": "Test1 1378",
        "Satellite Number": 1378,
        "Semi-Major Axis(m)": 6980739.136638005,
        "Time(s)": 60
    },
    {
        "Altitude(m)": 619034.3034461937,
        "Argument of Periapsis(deg)": 0.0007293262139307483,
        "Eccentricity": 0.0,
        "Inclination(deg)": 60.0,
        "Latitude(deg)": -44.28571073423514,
        "Longitude(deg)": 63.79641688412939,
        "Mean Anomaly(deg)": -126.56835698176724,
        "RAAN(deg)": 309.99705965602186,
        "Satellite Name": "Test1 1378",
        "Satellite Number": 1378,
        "Semi-Major Axis(m)": 6980739.136638005,
        "Time(s)": 70
    },
    {
        "Altitude(m)": 619216.4433490345,
        "Argument of Periapsis(deg)": 0.0008335156730637124,
        "Eccentricity": 0.0,
        "Inclination(deg)": 60.0,
        "Latitude(deg)": -44.728376524491075,
        "Longitude(deg)": 64.35967795773674,
        "Mean Anomaly(deg)": -125.94825083630538,
        "RAAN(deg)": 309.99663960688207,
        "Satellite Name": "Test1 1378",
        "Satellite Number": 1378,
        "Semi-Major Axis(m)": 6980739.136638005,
        "Time(s)": 80
    },
    {
        "Altitude(m)": 619396.9558698164,
        "Argument of Periapsis(deg)": 0.0009377051321966765,
        "Eccentricity": 0.0,
        "Inclination(deg)": 60.0,
        "Latitude(deg)": -45.167746312181286,
        "Longitude(deg)": 64.9321753821919,
        "Mean Anomaly(deg)": -125.32814469084353,
        "RAAN(deg)": 309.9962195577423,
        "Satellite Name": "Test1 1378",
        "Satellite Number": 1378,
        "Semi-Major Axis(m)": 6980739.136638005,
        "Time(s)": 90
    },
    {
        "Altitude(m)": 619575.7712789322,
        "Argument of Periapsis(deg)": 0.0010418945913296407,
        "Eccentricity": 0.0,
        "Inclination(deg)": 60.0,
        "Latitude(deg)": -45.60372052172325,
        "Longitude(deg)": 65.5141247354112,
        "Mean Anomaly(deg)": -124.70803854538167,
        "RAAN(deg)": 309.99579950860254,
        "Satellite Name": "Test1 1378",
        "Satellite Number": 1378,
        "Semi-Major Axis(m)": 6980739.136638005,
        "Time(s)": 100
    },
    {
        "Altitude(m)": 619752.8204408513,
        "Argument of Periapsis(deg)": 0.0011460840504626045,
        "Eccentricity": 0.0,
        "Inclination(deg)": 60.0,
        "Latitude(deg)": -46.03619650163054,
        "Longitude(deg)": 66.10574327071517,
        "Mean Anomaly(deg)": -124.08793239991988,
        "RAAN(deg)": 309.9953794594628,
        "Satellite Name": "Test1 1378",
        "Satellite Number": 1378,
        "Semi-Major Axis(m)": 6980739.136638005,
        "Time(s)": 110
    },
    {
        "Altitude(m)": 619928.0348440447,
        "Argument of Periapsis(deg)": 0.0012502735095955685,
        "Eccentricity": 0.0,
        "Inclination(deg)": 60.0,
        "Latitude(deg)": -46.465068448075236,
        "Longitude(deg)": 66.70725015015881,
        "Mean Anomaly(deg)": -123.46782625445802,
        "RAAN(deg)": 309.9949594103231,
        "Satellite Name": "Test1 1378",
        "Satellite Number": 1378,
        "Semi-Major Axis(m)": 6980739.136638005,
        "Time(s)": 120
    },
    {
        "Altitude(m)": 620101.3466306691,
        "Argument of Periapsis(deg)": 0.0013544629687285324,
        "Eccentricity": 0.0,
        "Inclination(deg)": 60.0,
        "Latitude(deg)": -46.890227330250354,
        "Longitude(deg)": 67.31886664256461,
        "Mean Anomaly(deg)": -122.84772010899617,
        "RAAN(deg)": 309.99453936118334,
        "Satellite Name": "Test1 1378",
        "Satellite Number": 1378,
        "Semi-Major Axis(m)": 6980739.136638005,
        "Time(s)": 130
    },
    {
        "Altitude(m)": 620272.6886259025,
        "Argument of Periapsis(deg)": 0.0014586524278614966,
        "Eccentricity": 0.0,
        "Inclination(deg)": 60.0,
        "Latitude(deg)": -47.311560818068465,
        "Longitude(deg)": 67.94081477072409,
        "Mean Anomaly(deg)": -122.22761396353431,
        "RAAN(deg)": 309.9941193120436,
        "Satellite Name": "Test1 1378",
        "Satellite Number": 1378,
        "Semi-Major Axis(m)": 6980739.136638005,
        "Time(s)": 140
    },
    {
        "Altitude(m)": 620441.9943669804,
        "Argument of Periapsis(deg)": 0.0015628418869944607,
        "Eccentricity": 0.0,
        "Inclination(deg)": 60.0,
        "Latitude(deg)": -47.72895321278634,
        "Longitude(deg)": 68.57331743076064,
        "Mean Anomaly(deg)": -121.60750781807252,
        "RAAN(deg)": 309.9936992629039,
        "Satellite Name": "Test1 1378",
        "Satellite Number": 1378,
        "Semi-Major Axis(m)": 6980739.136638005,
        "Time(s)": 150
    },
    {
        "Altitude(m)": 620609.1981319122,
        "Argument of Periapsis(deg)": 0.0016670313461274247,
        "Eccentricity": 0.0,
        "Inclination(deg)": 60.0,
        "Latitude(deg)": -48.14228538120894,
        "Longitude(deg)": 69.21659846795805,
        "Mean Anomaly(deg)": -120.98740167261066,
        "RAAN(deg)": 309.99327921376414,
        "Satellite Name": "Test1 1378",
        "Satellite Number": 1378,
        "Semi-Major Axis(m)": 6980739.136638005,
        "Time(s)": 160
    },
    {
        "Altitude(m)": 620774.234967809,
        "Argument of Periapsis(deg)": 0.0017712208052603888,
        "Eccentricity": 0.0,
        "Inclination(deg)": 60.0,
        "Latitude(deg)": -48.55143469419135,
        "Longitude(deg)": 69.87088119331362,
        "Mean Anomaly(deg)": -120.36729552714881,
        "RAAN(deg)": 309.99285916462435,
        "Satellite Name": "Test1 1378",
        "Satellite Number": 1378,
        "Semi-Major Axis(m)": 6980739.136638005,
        "Time(s)": 170
    },
    {
        "Altitude(m)": 620937.0407189262,
        "Argument of Periapsis(deg)": 0.001875410264393353,
        "Eccentricity": 0.0,
        "Inclination(deg)": 60.0,
        "Latitude(deg)": -48.95627497021985,
        "Longitude(deg)": 70.53638836364796,
        "Mean Anomaly(deg)": -119.74718938168705,
        "RAAN(deg)": 309.9924391154846,
        "Satellite Name": "Test1 1378",
        "Satellite Number": 1378,
        "Semi-Major Axis(m)": 6980739.136638005,
        "Time(s)": 180
    },
    {
        "Altitude(m)": 621097.5520542643,
        "Argument of Periapsis(deg)": 0.0019795997235263173,
        "Eccentricity": 0.0,
        "Inclination(deg)": 60.0,
        "Latitude(deg)": -49.35667642492821,
        "Longitude(deg)": 71.21334210950211,
        "Mean Anomaly(deg)": -119.12708323622516,
        "RAAN(deg)": 309.9920190663449,
        "Satellite Name": "Test1 1378",
        "Satellite Number": 1378,
        "Semi-Major Axis(m)": 6980739.136638005,
        "Time(s)": 190
    }
]